{"type":"FeatureCollection","features":[{"type":"Feature","geometry":{"type":"Polygon","coordinates":[[[44.1509,10.3209],[44.2367,10.4731],[44.2017,10.5077],[44.1486,10.5476],[44.0961,10.5719],[44.0724,10.5979],[43.7597,10.4871],[43.4609,10.3809],[43.3909,10.4109],[43.3511,10.0511],[43.3309,9.8409],[43.3709,9.801],[43.5309,9.9909],[43.7209,10.2609],[43.7609,10.3009],[43.8209,10.2909],[44.041,10.171],[44.1509,10.3209]]]},"properties":{"adm2_name":"Baki","adm2_pcode":"SO1102","adm1_name":"Awdal","adm1_pcode":"SO11","center_lat":10.19423239,"center_lon":43.52042795}},{"type":"Feature","geometry":{"type":"Polygon","coordinates":[[[43.3909,10.4109],[43.3709,10.5309],[43.2209,10.5009],[42.8609,10.3509],[42.8175,10.3183],[42.8327,10.2779],[42.8813,10.2071],[43.0107,10.0915],[43.0175,10.0807],[43.0859,9.9089],[43.1155,9.8889],[43.1499,9.8995],[43.2569,9.8427],[43.2897,9.6573],[43.3709,9.801],[43.3309,9.8409],[43.3511,10.0511],[43.3909,10.4109]]]},"properties":{"adm2_name":"Borama","adm2_pcode":"SO1101","adm1_name":"Awdal","adm1_pcode":"SO11","center_lat":10.09640503,"center_lon":43.18074793}},{"type":"Feature","geometry":{"type":"Polygon","coordinates":[[[44.0724,10.5979],[43.995,10.6621],[43.9567,10.6813],[43.8571,10.7674],[43.7891,10.8354],[43.6978,10.9352],[43.3586,10.7892],[43.1309,10.6909],[43.2209,10.5009],[43.3709,10.5309],[43.3909,10.4109],[43.4609,10.3809],[43.7597,10.4871],[44.0724,10.5979]]]},"properties":{"adm2_name":"Lughaye","adm2_pcode":"SO1103","adm1_name":"Awdal","adm1_pcode":"SO11","center_lat":10.65553331,"center_lon":43.57543663}},{"type":"Feature","geometry":{"type":"Polygon","coordinates":[[[43.2209,10.5009],[43.1309,10.6909],[43.3586,10.7892],[43.6978,10.9352],[43.6745,10.9646],[43.5986,11.0823],[43.565,11.1471],[43.556,11.1789],[43.5214,11.183],[43.4961,11.2436],[43.4934,11.2902],[43.4795,11.3291],[43.4984,11.3712],[43.4597,11.3513],[43.4276,11.3789],[43.391,11.3798],[43.3312,11.4263],[43.3151,11.465],[43.2875,11.4708],[43.2613,11.4621],[42.9681,10.9975],[42.9101,10.9139],[42.7665,10.722],[42.7229,10.6515],[42.693,10.6252],[42.6833,10.5925],[42.6985,10.5463],[42.7467,10.5123],[42.7631,10.4567],[42.7919,10.4041],[42.8175,10.3183],[42.8609,10.3509],[43.2209,10.5009]]]},"properties":{"adm2_name":"Zeylac","adm2_pcode":"SO1104","adm1_name":"Awdal","adm1_pcode":"SO11","center_lat":10.90276527,"center_lon":43.26187596}},{"type":"Feature","geometry":{"type":"Polygon","coordinates":[[[44.5921,4.9348],[44.0151,4.9604],[43.8139,4.91],[43.6591,4.868],[43.4349,4.7947],[43.2353,4.6963],[43.1279,4.6345],[43.2809,4.4814],[43.5594,4.4677],[44.016,4.4451],[44.2911,4.4314],[44.6785,4.4308],[44.5921,4.9348]]]},"properties":{"adm2_name":"Ceel Barde","adm2_pcode":"SO2502","adm1_name":"Bakool","adm1_pcode":"SO25","center_lat":4.69021601,"center_lon":43.92904626}},{"type":"Feature","geometry":{"type":"Polygon","coordinates":[[[43.1279,4.6345],[43.0443,4.5721],[43.0261,4.5423],[43.0073,4.4677],[42.9693,4.4033],[42.9257,4.3481],[42.8854,4.3076],[43.0914,3.9477],[43.6309,4.0515],[43.2809,4.4814],[43.1279,4.6345]]]},"properties":{"adm2_name":"Rab Dhuure","adm2_pcode":"SO2505","adm1_name":"Bakool","adm1_pcode":"SO25","center_lat":4.22350194,"center_lon":43.21217369}},{"type":"Feature","geometry":{"type":"Polygon","coordinates":[[[44.2911,4.4314],[44.2911,4.1024],[44.2911,3.6115],[44.3111,3.5715],[44.3111,3.3915],[44.2809,3.3415],[44.4109,3.2615],[44.611,3.2715],[44.661,3.2515],[44.7809,3.2715],[44.7709,3.7015],[44.801,3.8615],[44.7497,4.0778],[44.6811,4.4115],[44.6785,4.4308],[44.2911,4.4314]]]},"properties":{"adm2_name":"Tayeeglow","adm2_pcode":"SO2503","adm1_name":"Bakool","adm1_pcode":"SO25","center_lat":3.81189881,"center_lon":44.54136677}},{"type":"Feature","geometry":{"type":"Polygon","coordinates":[[[43.0914,3.9477],[43.1409,3.8515],[43.1209,3.6715],[43.4109,3.5715],[43.5809,3.6115],[43.6809,3.7215],[43.7509,3.8515],[43.7977,3.8847],[43.6309,4.0515],[43.0914,3.9477]]]},"properties":{"adm2_name":"Waajid","adm2_pcode":"SO2504","adm1_name":"Bakool","adm1_pcode":"SO25","center_lat":3.804685,"center_lon":43.43071401}},{"type":"Feature","geometry":{"type":"Polygon","coordinates":[[[43.2809,4.4814],[43.6309,4.0515],[43.7977,3.8847],[43.8809,3.9215],[43.9509,3.9215],[44.1809,3.8515],[44.2911,3.6115],[44.2911,4.1024],[44.2911,4.4314],[44.016,4.4451],[43.5594,4.4677],[43.2809,4.4814]]]},"properties":{"adm2_name":"Xudur","adm2_pcode":"SO2501","adm1_name":"Bakool","adm1_pcode":"SO25","center_lat":4.0366221,"center_lon":43.96843838}},{"type":"Feature","geometry":{"type":"Polygon","coordinates":[[[45.346,2.0399],[45.3451,2.0526],[45.3396,2.0517],[45.3381,2.0375],[45.3422,2.0387],[45.346,2.0399]]]},"properties":{"adm2_name":"Bondhere","adm2_pcode":"SO2201","adm1_name":"Banadir","adm1_pcode":"SO22","center_lat":2.045235,"center_lon":45.34052929}},{"type":"Feature","geometry":{"type":"Polygon","coordinates":[[[45.3521,2.0361],[45.3637,2.0404],[45.3615,2.0459],[45.352,2.0397],[45.3521,2.0361]]]},"properties":{"adm2_name":"Cabdulasis","adm2_pcode":"SO2202","adm1_name":"Banadir","adm1_pcode":"SO22","center_lat":2.03955,"center_lon":45.35749592}},{"type":"Feature","geometry":{"type":"Polygon","coordinates":[[[45.3437,2.0899],[45.2845,2.1047],[45.2255,2.0717],[45.2515,2.0688],[45.2827,2.045],[45.311,2.0596],[45.3201,2.0641],[45.3265,2.0674],[45.3437,2.0899]]]},"properties":{"adm2_name":"Daynile","adm2_pcode":"SO2203","adm1_name":"Banadir","adm1_pcode":"SO22","center_lat":2.07344249,"center_lon":45.2784482}},{"type":"Feature","geometry":{"type":"Polygon","coordinates":[[[45.23,1.9684],[45.2588,1.9865],[45.2835,2.0445],[45.2828,2.0449],[45.2295,2.0191],[45.23,1.9684]]]},"properties":{"adm2_name":"Dharkenley","adm2_pcode":"SO2204","adm1_name":"Banadir","adm1_pcode":"SO22","center_lat":2.00327062,"center_lon":45.2462726}},{"type":"Feature","geometry":{"type":"Polygon","coordinates":[[[45.3296,2.0369],[45.3309,2.0216],[45.3371,2.0282],[45.3342,2.0365],[45.3296,2.0369]]]},"properties":{"adm2_name":"Hamar Jabjab","adm2_pcode":"SO2205","adm1_name":"Banadir","adm1_pcode":"SO22","center_lat":2.02926633,"center_lon":45.33019551}},{"type":"Feature","geometry":{"type":"Polygon","coordinates":[[[45.3381,2.0375],[45.3342,2.0365],[45.3371,2.0282],[45.3437,2.0325],[45.3422,2.0387],[45.3381,2.0375]]]},"properties":{"adm2_name":"Hamar Weyne","adm2_pcode":"SO2206","adm1_name":"Banadir","adm1_pcode":"SO22","center_lat":2.03388362,"center_lon":45.33880845}},{"type":"Feature","geometry":{"type":"Polygon","coordinates":[[[45.311,2.0596],[45.3187,2.0329],[45.3294,2.037],[45.3201,2.0641],[45.311,2.0596]]]},"properties":{"adm2_name":"Hawl Wadaag","adm2_pcode":"SO2207","adm1_name":"Banadir","adm1_pcode":"SO22","center_lat":2.04832338,"center_lon":45.3193717}},{"type":"Feature","geometry":{"type":"Polygon","coordinates":[[[45.4329,2.0938],[45.4328,2.0998],[45.3698,2.0999],[45.3634,2.0868],[45.3539,2.0647],[45.3773,2.0594],[45.4329,2.0938]]]},"properties":{"adm2_name":"Heliwa","adm2_pcode":"SO2208","adm1_name":"Banadir","adm1_pcode":"SO22","center_lat":2.07962306,"center_lon":45.38357004}},{"type":"Feature","geometry":{"type":"Polygon","coordinates":[[[45.2827,2.045],[45.2828,2.0449],[45.2835,2.0445],[45.3107,2.0316],[45.3187,2.0329],[45.311,2.0596],[45.2827,2.045]]]},"properties":{"adm2_name":"Hodan","adm2_pcode":"SO2209","adm1_name":"Banadir","adm1_pcode":"SO22","center_lat":2.04556953,"center_lon":45.29894789}},{"type":"Feature","geometry":{"type":"Polygon","coordinates":[[[45.2255,2.0717],[45.2083,2.0712],[45.2295,2.0191],[45.2828,2.0449],[45.2827,2.045],[45.2515,2.0688],[45.2255,2.0717]]]},"properties":{"adm2_name":"Kahda","adm2_pcode":"SO2210","adm1_name":"Banadir","adm1_pcode":"SO22","center_lat":2.04710787,"center_lon":45.24958836}},{"type":"Feature","geometry":{"type":"Polygon","coordinates":[[[45.3637,2.0404],[45.4329,2.0819],[45.4329,2.0938],[45.3773,2.0594],[45.3539,2.0647],[45.3524,2.0539],[45.3615,2.0459],[45.3637,2.0404]]]},"properties":{"adm2_name":"Karaan","adm2_pcode":"SO2211","adm1_name":"Banadir","adm1_pcode":"SO22","center_lat":2.06708727,"center_lon":45.39958623}},{"type":"Feature","geometry":{"type":"Polygon","coordinates":[[[45.3422,2.0387],[45.3437,2.0325],[45.3521,2.0361],[45.352,2.0397],[45.346,2.0399],[45.3422,2.0387]]]},"properties":{"adm2_name":"Shangaani","adm2_pcode":"SO2212","adm1_name":"Banadir","adm1_pcode":"SO22","center_lat":2.03744,"center_lon":45.34728668}},{"type":"Feature","geometry":{"type":"Polygon","coordinates":[[[45.346,2.0399],[45.352,2.0397],[45.3615,2.0459],[45.3524,2.0539],[45.3451,2.0526],[45.346,2.0399]]]},"properties":{"adm2_name":"Shibis","adm2_pcode":"SO2213","adm1_name":"Banadir","adm1_pcode":"SO22","center_lat":2.04697608,"center_lon":45.35337195}},{"type":"Feature","geometry":{"type":"Polygon","coordinates":[[[45.3265,2.0674],[45.3365,2.0726],[45.3634,2.0868],[45.3698,2.0999],[45.4328,2.0998],[45.4329,2.0938],[45.4329,2.0819],[45.6069,2.1849],[45.461,2.1716],[45.391,2.1517],[45.3437,2.0899],[45.3265,2.0674]]]},"properties":{"adm2_name":"Unspecified","adm2_pcode":"Unspecified","adm1_name":"Banadir","adm1_pcode":"SO22","center_lat":2.12719727,"center_lon":45.44227136}},{"type":"Feature","geometry":{"type":"Polygon","coordinates":[[[45.3296,2.0369],[45.3294,2.037],[45.3187,2.0329],[45.3107,2.0316],[45.2812,2.0006],[45.3309,2.0216],[45.3296,2.0369]]]},"properties":{"adm2_name":"Waaberi","adm2_pcode":"SO2214","adm1_name":"Banadir","adm1_pcode":"SO22","center_lat":2.01881545,"center_lon":45.3129911}},{"type":"Feature","geometry":{"type":"Polygon","coordinates":[[[45.2588,1.9865],[45.2812,2.0006],[45.3107,2.0316],[45.2835,2.0445],[45.2588,1.9865]]]},"properties":{"adm2_name":"Wadajir (Medina)","adm2_pcode":"SO2215","adm1_name":"Banadir","adm1_pcode":"SO22","center_lat":2.01532,"center_lon":45.28572268}},{"type":"Feature","geometry":{"type":"Polygon","coordinates":[[[45.3396,2.0517],[45.3365,2.0726],[45.3265,2.0674],[45.3201,2.0641],[45.3294,2.037],[45.3296,2.0369],[45.3342,2.0365],[45.3381,2.0375],[45.3396,2.0517]]]},"properties":{"adm2_name":"Wardhigley","adm2_pcode":"SO2216","adm1_name":"Banadir","adm1_pcode":"SO22","center_lat":2.05319494,"center_lon":45.33162016}},{"type":"Feature","geometry":{"type":"Polygon","coordinates":[[[45.3451,2.0526],[45.3524,2.0539],[45.3539,2.0647],[45.3634,2.0868],[45.3365,2.0726],[45.3396,2.0517],[45.3451,2.0526]]]},"properties":{"adm2_name":"Yaaqshid","adm2_pcode":"SO2217","adm1_name":"Banadir","adm1_pcode":"SO22","center_lat":2.06896444,"center_lon":45.34626698}},{"type":"Feature","geometry":{"type":"Polygon","coordinates":[[[50.1761,8.3291],[50.1913,8.3657],[50.2239,8.4051],[50.2446,8.4462],[50.3061,8.5065],[50.332,8.5509],[50.3257,8.5999],[50.3385,8.6502],[50.3795,8.6963],[50.3878,8.7483],[50.4047,8.7809],[50.4079,8.826],[50.4434,8.8932],[50.5025,8.9495],[50.5748,9.0072],[50.5864,9.0276],[50.6215,9.0515],[50.6409,9.0771],[50.6512,9.119],[50.6457,9.1725],[50.655,9.2035],[50.7053,9.2681],[50.7383,9.2877],[50.8101,9.3847],[50.8466,9.4657],[50.806,9.5015],[50.7986,9.5606],[50.807,9.6171],[50.8239,9.6574],[50.8322,9.7477],[50.8514,9.8546],[50.8683,9.8762],[50.8778,9.9209],[50.5111,9.9109],[50.0911,9.8109],[50.0811,9.7009],[50.0611,9.2811],[49.9211,9.121],[49.8911,9.0311],[49.8911,8.4011],[49.9311,8.4611],[50.0511,8.4411],[50.1761,8.3291]]]},"properties":{"adm2_name":"Bandarbeyla","adm2_pcode":"SO1602","adm1_name":"Bari","adm1_pcode":"SO16","center_lat":9.1271081,"center_lon":50.28856949}},{"type":"Feature","geometry":{"type":"Polygon","coordinates":[[[49.6211,10.5109],[49.9011,10.8009],[49.9111,10.9009],[49.7611,11.1409],[49.7211,11.1809],[49.5807,11.4514],[49.5533,11.4455],[49.5095,11.3809],[49.4743,11.3733],[49.422,11.3335],[49.3862,11.3278],[49.296,11.3328],[49.2397,11.2985],[49.1439,11.2787],[49.0512,11.2638],[48.9553,11.2384],[48.9191,11.2387],[49.0311,10.7809],[49.0411,10.3509],[49.1111,10.4209],[49.1911,10.5209],[49.3511,10.5609],[49.4611,10.5009],[49.5611,10.5009],[49.6211,10.5109]]]},"properties":{"adm2_name":"Bossaso","adm2_pcode":"SO1601","adm1_name":"Bari","adm1_pcode":"SO16","center_lat":10.96716698,"center_lon":49.42761938}},{"type":"Feature","geometry":{"type":"Polygon","coordinates":[[[51.1244,11.5015],[51.1739,11.5763],[51.2254,11.6419],[51.2407,11.6505],[51.2542,11.6946],[51.2445,11.7123],[51.2567,11.7567],[51.2846,11.8116],[51.2731,11.8418],[51.2322,11.8354],[51.1822,11.8507],[51.1403,11.8739],[51.0544,11.8726],[50.9559,11.9218],[50.9041,11.9398],[50.8586,11.9437],[50.8058,11.9794],[50.6734,11.9331],[50.6384,11.9408],[50.5815,11.9121],[50.5525,11.8844],[50.5371,11.8399],[50.5625,11.8837],[50.5311,11.7949],[50.4929,11.7316],[50.4315,11.6704],[50.3877,11.6563],[50.3557,11.6362],[50.3211,11.4809],[50.3011,11.4508],[50.4111,11.4008],[50.6911,11.4109],[51.1244,11.5015]]]},"properties":{"adm2_name":"Caluula","adm2_pcode":"SO1603","adm1_name":"Bari","adm1_pcode":"SO16","center_lat":11.69170141,"center_lon":50.85502539}},{"type":"Feature","geometry":{"type":"Polygon","coordinates":[[[50.8778,9.9209],[50.8983,9.992],[50.8821,10.0957],[50.9023,10.191],[50.894,10.2565],[50.9001,10.3107],[51.0159,10.3823],[51.0471,10.3959],[51.1617,10.4177],[51.2449,10.4219],[51.2685,10.4029],[51.2685,10.3763],[51.2893,10.3684],[51.3407,10.3743],[51.374,10.3622],[51.3711,10.3775],[51.3927,10.3945],[51.413,10.4397],[51.388,10.4748],[51.3513,10.4801],[51.3185,10.4707],[51.2367,10.5066],[51.1992,10.5312],[51.1967,10.4741],[51.2357,10.4361],[51.1201,10.4301],[51.0637,10.4187],[51.0427,10.4044],[51.0259,10.4421],[51.0399,10.4569],[51.0845,10.4616],[51.1082,10.4943],[51.1053,10.5499],[51.1658,10.5663],[51.1509,10.6143],[51.1454,10.6593],[51.1313,10.6729],[51.1299,10.7541],[51.1166,10.9399],[51.1323,11.0388],[51.1785,11.1315],[51.1769,11.1471],[51.1111,11.1559],[51.0864,11.1869],[51.0758,11.2198],[51.074,11.2624],[51.084,11.3389],[51.1206,11.4285],[51.1244,11.5015],[50.6911,11.4109],[50.4111,11.4008],[50.3411,11.1608],[50.5511,10.8309],[50.4611,10.6609],[50.3237,10.6364],[49.6211,10.5109],[49.5611,10.5009],[49.7011,10.0209],[50.0111,9.8109],[50.0911,9.8109],[50.5111,9.9109],[50.8778,9.9209]]]},"properties":{"adm2_name":"Iskushuban","adm2_pcode":"SO1604","adm1_name":"Bari","adm1_pcode":"SO16","center_lat":10.65594407,"center_lon":50.7896225}},{"type":"Feature","geometry":{"type":"Polygon","coordinates":[[[49.6211,10.5109],[50.3237,10.6364],[50.4611,10.6609],[50.5511,10.8309],[50.3411,11.1608],[50.4111,11.4008],[50.3011,11.4508],[50.3211,11.4809],[50.3557,11.6362],[50.2852,11.6026],[50.2605,11.5806],[50.2157,11.5617],[50.1672,11.554],[50.1221,11.5375],[50.0893,11.5109],[50.064,11.5037],[49.9273,11.5047],[49.8615,11.4681],[49.8241,11.4574],[49.7621,11.4563],[49.6922,11.4773],[49.6558,11.459],[49.5807,11.4514],[49.7211,11.1809],[49.7611,11.1409],[49.9111,10.9009],[49.9011,10.8009],[49.6211,10.5109]]]},"properties":{"adm2_name":"Qandala","adm2_pcode":"SO1605","adm1_name":"Bari","adm1_pcode":"SO16","center_lat":11.08708111,"center_lon":50.09138682}},{"type":"Feature","geometry":{"type":"Polygon","coordinates":[[[50.0911,9.8109],[50.0111,9.8109],[49.7011,10.0209],[49.5611,10.5009],[49.4611,10.5009],[49.3511,10.5609],[49.1911,10.5209],[49.1111,10.4209],[49.0411,10.3509],[49.0553,9.7958],[49.0611,9.5711],[49.0811,9.1405],[49.1111,8.901],[49.1811,8.771],[49.3001,8.6854],[49.4511,8.5911],[49.6811,8.5811],[49.7811,8.5311],[49.8411,8.3311],[49.8911,8.4011],[49.8911,9.0311],[49.9211,9.121],[50.0611,9.2811],[50.0811,9.7009],[50.0911,9.8109]]]},"properties":{"adm2_name":"Qardho","adm2_pcode":"SO1606","adm1_name":"Bari","adm1_pcode":"SO16","center_lat":9.41529953,"center_lon":49.56791222}},{"type":"Feature","geometry":{"type":"Polygon","coordinates":[[[44.2911,3.6115],[44.1809,3.8515],[43.9509,3.9215],[43.8809,3.9215],[43.7977,3.8847],[43.7509,3.8515],[43.6809,3.7215],[43.5809,3.6115],[43.4109,3.5715],[43.1209,3.6715],[43.1021,3.257],[43.1021,3.0815],[43.1209,3.0815],[43.1209,2.5717],[43.4409,2.5216],[43.5334,2.6542],[43.7311,2.8617],[43.9576,3.0595],[44.2809,3.3415],[44.3111,3.3915],[44.3111,3.5715],[44.2911,3.6115]]]},"properties":{"adm2_name":"Baydhaba","adm2_pcode":"SO2401","adm1_name":"Bay","adm1_pcode":"SO24","center_lat":3.21673307,"center_lon":43.61984982}},{"type":"Feature","geometry":{"type":"Polygon","coordinates":[[[44.2809,3.3415],[43.9576,3.0595],[43.7311,2.8617],[43.5334,2.6542],[43.4409,2.5216],[43.3509,2.3916],[43.2009,2.0417],[43.2209,1.9517],[43.3109,1.8117],[43.3109,1.6267],[43.5854,1.7635],[43.9017,1.8906],[44.336,2.0826],[44.6509,2.2217],[44.6495,2.2351],[44.6211,2.4817],[44.661,2.7516],[44.641,2.8116],[44.6911,3.0517],[44.661,3.2515],[44.611,3.2715],[44.4109,3.2615],[44.2809,3.3415]]]},"properties":{"adm2_name":"Buur Hakaba","adm2_pcode":"SO2402","adm1_name":"Bay","adm1_pcode":"SO24","center_lat":2.50165391,"center_lon":44.02556238}},{"type":"Feature","geometry":{"type":"Polygon","coordinates":[[[43.1209,2.5717],[42.9096,2.5818],[42.5161,2.6006],[42.4585,2.2759],[42.4009,1.9517],[42.5209,1.8817],[42.8612,1.5593],[42.9532,1.4825],[42.9809,1.4617],[43.3109,1.6267],[43.3109,1.8117],[43.2209,1.9517],[43.2009,2.0417],[43.3509,2.3916],[43.4409,2.5216],[43.1209,2.5717]]]},"properties":{"adm2_name":"Diinsoor","adm2_pcode":"SO2403","adm1_name":"Bay","adm1_pcode":"SO24","center_lat":2.03464817,"center_lon":42.80906404}},{"type":"Feature","geometry":{"type":"Polygon","coordinates":[[[43.1021,3.0815],[43.1009,3.0616],[42.9309,3.0416],[42.6009,3.0716],[42.5417,2.7461],[42.5161,2.6006],[42.9096,2.5818],[43.1209,2.5717],[43.1209,3.0815],[43.1021,3.0815]]]},"properties":{"adm2_name":"Qansax Dheere","adm2_pcode":"SO2404","adm1_name":"Bay","adm1_pcode":"SO24","center_lat":2.81169213,"center_lon":42.83731407}},{"type":"Feature","geometry":{"type":"Polygon","coordinates":[[[45.6555,5.1785],[45.6839,5.197],[46.1984,5.63],[46.2711,5.6913],[46.4509,5.9013],[46.6711,5.9311],[46.5151,6.4972],[46.3101,6.2867],[45.8656,5.8292],[45.4811,5.4329],[45.6555,5.1785]]]},"properties":{"adm2_name":"Cabudwaaq","adm2_pcode":"SO1902","adm1_name":"Galgaduud","adm1_pcode":"SO19","center_lat":5.84708358,"center_lon":46.14369133}},{"type":"Feature","geometry":{"type":"Polygon","coordinates":[[[46.6711,5.9311],[46.711,5.8613],[47.0697,5.8007],[47.3517,5.7529],[47.5188,6.1069],[47.601,6.2813],[47.2959,6.3495],[46.9975,6.4161],[46.5415,6.5177],[46.5383,6.521],[46.5151,6.4972],[46.6711,5.9311]]]},"properties":{"adm2_name":"Cadaado","adm2_pcode":"SO1903","adm1_name":"Galgaduud","adm1_pcode":"SO19","center_lat":6.15692726,"center_lon":47.0756365}},{"type":"Feature","geometry":{"type":"Polygon","coordinates":[[[47.5017,4.4953],[47.6033,5.1419],[47.608,5.1995],[47.1111,5.1715],[46.9712,5.1646],[46.491,5.1414],[46.2299,5.0733],[46.211,4.9414],[46.1111,4.7415],[46.151,4.4315],[46.3968,4.2348],[46.7111,4.3315],[47.2124,4.4355],[47.5017,4.4953]]]},"properties":{"adm2_name":"Ceel Buur","adm2_pcode":"SO1904","adm1_name":"Galgaduud","adm1_pcode":"SO19","center_lat":4.68205844,"center_lon":46.82490038}},{"type":"Feature","geometry":{"type":"Polygon","coordinates":[[[46.3968,4.2348],[46.3911,3.8914],[46.7304,3.6717],[47.038,3.4723],[47.1291,3.5648],[47.2057,3.6581],[47.2875,3.7415],[47.3779,3.8269],[47.4285,3.8695],[47.6071,4.0755],[47.715,4.1936],[47.751,4.226],[47.8348,4.3329],[47.6055,4.4419],[47.5017,4.4953],[47.2124,4.4355],[46.7111,4.3315],[46.3968,4.2348]]]},"properties":{"adm2_name":"Ceel Dheer","adm2_pcode":"SO1905","adm1_name":"Galgaduud","adm1_pcode":"SO19","center_lat":3.98375809,"center_lon":46.9596925}},{"type":"Feature","geometry":{"type":"Polygon","coordinates":[[[45.6555,5.1785],[45.711,5.1114],[46.041,5.0314],[46.231,5.0814],[46.2299,5.0733],[46.491,5.1414],[46.9712,5.1646],[47.1111,5.1715],[47.608,5.1995],[47.471,5.5713],[47.3517,5.7529],[47.0697,5.8007],[46.711,5.8613],[46.6711,5.9311],[46.4509,5.9013],[46.2711,5.6913],[46.1984,5.63],[45.6839,5.197],[45.6555,5.1785]]]},"properties":{"adm2_name":"Dhuusamarreeb","adm2_pcode":"SO1901","adm1_name":"Galgaduud","adm1_pcode":"SO19","center_lat":5.49551781,"center_lon":46.7687496}},{"type":"Feature","geometry":{"type":"Polygon","coordinates":[[[42.5161,2.6006],[42.5417,2.7461],[42.5426,2.751],[42.3813,2.8048],[41.9709,2.9416],[41.8978,2.6954],[41.7809,2.3016],[41.3721,2.3069],[40.9949,2.3117],[40.9955,1.7476],[40.9957,1.2327],[41.4209,1.2617],[41.5583,1.6865],[41.6409,1.9417],[42.2319,1.9495],[42.4009,1.9517],[42.4585,2.2759],[42.5161,2.6006]]]},"properties":{"adm2_name":"Baardheere","adm2_pcode":"SO2602","adm1_name":"Gedo","adm1_pcode":"SO26","center_lat":2.15175241,"center_lon":41.71573756}},{"type":"Feature","geometry":{"type":"Polygon","coordinates":[[[42.0409,3.6815],[42.1009,3.8115],[41.8608,3.9117],[41.6709,3.6399],[41.3333,3.1565],[41.3163,3.1397],[41.7209,3.0017],[41.9425,3.4656],[42.0409,3.6815]]]},"properties":{"adm2_name":"Belet Xaawo","adm2_pcode":"SO2603","adm1_name":"Gedo","adm1_pcode":"SO26","center_lat":3.40276694,"center_lon":41.7089009}},{"type":"Feature","geometry":{"type":"Polygon","coordinates":[[[41.9709,2.9416],[41.7209,3.0017],[41.3163,3.1397],[40.9957,2.8217],[40.9949,2.3117],[41.3721,2.3069],[41.7809,2.3016],[41.8978,2.6954],[41.9709,2.9416]]]},"properties":{"adm2_name":"Ceel Waaq","adm2_pcode":"SO2604","adm1_name":"Gedo","adm1_pcode":"SO26","center_lat":2.75904929,"center_lon":41.45616451}},{"type":"Feature","geometry":{"type":"Polygon","coordinates":[[[42.1009,3.8115],[42.2309,3.7915],[42.4017,4.1931],[42.1967,4.1789],[42.0877,4.1794],[42.0511,4.1515],[42,4.0934],[41.9791,4.0952],[41.9463,4.0557],[41.9491,4.0279],[41.9101,3.9823],[41.8608,3.9117],[42.1009,3.8115]]]},"properties":{"adm2_name":"Doolow","adm2_pcode":"SO2605","adm1_name":"Gedo","adm1_pcode":"SO26","center_lat":3.9931821,"center_lon":42.11791997}},{"type":"Feature","geometry":{"type":"Polygon","coordinates":[[[43.1021,3.257],[42.8496,3.3521],[42.6829,3.4235],[42.4834,3.5045],[42.0409,3.6815],[41.9425,3.4656],[41.7209,3.0017],[41.9709,2.9416],[42.3813,2.8048],[42.5426,2.751],[42.5417,2.7461],[42.6009,3.0716],[42.9309,3.0416],[43.1009,3.0616],[43.1021,3.0815],[43.1021,3.257]]]},"properties":{"adm2_name":"Garbahaarey","adm2_pcode":"SO2601","adm1_name":"Gedo","adm1_pcode":"SO26","center_lat":3.17131679,"center_lon":42.45171926}},{"type":"Feature","geometry":{"type":"Polygon","coordinates":[[[42.8854,4.3076],[42.8173,4.2649],[42.7099,4.2618],[42.6717,4.2505],[42.5879,4.2154],[42.5267,4.2029],[42.4755,4.2027],[42.4017,4.1931],[42.2309,3.7915],[42.1009,3.8115],[42.0409,3.6815],[42.4834,3.5045],[42.6829,3.4235],[42.8496,3.3521],[43.1021,3.257],[43.1209,3.6715],[43.1409,3.8515],[43.0914,3.9477],[42.8854,4.3076]]]},"properties":{"adm2_name":"Luuq","adm2_pcode":"SO2606","adm1_name":"Gedo","adm1_pcode":"SO26","center_lat":3.78529535,"center_lon":42.61117757}},{"type":"Feature","geometry":{"type":"Polygon","coordinates":[[[44.6785,4.4308],[44.6811,4.4115],[44.7497,4.0778],[45.0011,4.1215],[45.0711,4.2615],[45.1211,4.2815],[45.421,4.3714],[45.561,4.3115],[45.741,4.4214],[46.151,4.4315],[46.1111,4.7415],[46.211,4.9414],[46.2299,5.0733],[46.231,5.0814],[46.041,5.0314],[45.711,5.1114],[45.6555,5.1785],[45.4811,5.4329],[45.1877,5.1296],[44.9817,4.9173],[44.5921,4.9348],[44.6785,4.4308]]]},"properties":{"adm2_name":"Belet Weyne","adm2_pcode":"SO2001","adm1_name":"Hiraan","adm1_pcode":"SO20","center_lat":4.82990908,"center_lon":45.38260684}},{"type":"Feature","geometry":{"type":"Polygon","coordinates":[[[44.7809,3.2715],[45.071,3.2515],[45.1509,3.2115],[45.2709,3.2015],[45.2971,3.2035],[45.181,3.5515],[45.6622,3.5622],[46.0911,3.5715],[46.2252,3.7988],[46.3911,3.8914],[46.3968,4.2348],[46.151,4.4315],[45.741,4.4214],[45.561,4.3115],[45.421,4.3714],[45.1211,4.2815],[45.0711,4.2615],[45.0011,4.1215],[44.7497,4.0778],[44.801,3.8615],[44.7709,3.7015],[44.7809,3.2715]]]},"properties":{"adm2_name":"Bulo Burto","adm2_pcode":"SO2002","adm1_name":"Hiraan","adm1_pcode":"SO20","center_lat":3.81713237,"center_lon":45.52533991}},{"type":"Feature","geometry":{"type":"Polygon","coordinates":[[[45.2971,3.2035],[45.6434,3.2294],[45.941,3.2515],[46.0125,3.4659],[46.0309,3.4997],[46.0611,3.5315],[46.0911,3.5715],[45.6622,3.5622],[45.181,3.5515],[45.2971,3.2035]]]},"properties":{"adm2_name":"Jalalaqsi","adm2_pcode":"SO2003","adm1_name":"Hiraan","adm1_pcode":"SO20","center_lat":3.38720703,"center_lon":45.61100554}},{"type":"Feature","geometry":{"type":"Polygon","coordinates":[[[40.9957,1.2327],[40.9957,1.002],[40.9959,0.5623],[40.9957,0.1327],[40.9957,-0.1973],[41.311,-0.1481],[41.8415,-0.0401],[41.8675,-0.0376],[42.2161,-0.0274],[42.5309,-0.0181],[42.5409,0.1118],[42.7268,0.3287],[42.6318,0.7184],[42.6209,0.7519],[42.5146,1.0708],[42.4309,1.3217],[42.139,1.3078],[41.7713,1.2841],[41.4209,1.2617],[40.9957,1.2327]]]},"properties":{"adm2_name":"Afmadow","adm2_pcode":"SO2802","adm1_name":"Lower Juba","adm1_pcode":"SO28","center_lat":0.5467818,"center_lon":41.83477493}},{"type":"Feature","geometry":{"type":"MultiPolygon","coordinates":[[[[40.9957,-0.1973],[40.9957,-0.8332],[41.2807,-1.218],[41.5645,-1.6012],[41.5645,-1.6649],[41.6192,-1.585],[41.6315,-1.578],[41.6973,-1.4745],[41.7502,-1.3808],[41.7753,-1.3541],[41.8347,-1.2537],[41.8436,-1.2311],[41.8311,-1.1719],[41.7729,-1.1507],[41.7103,-1.1974],[41.7213,-1.1767],[41.7665,-1.1427],[41.7961,-1.1461],[41.8463,-1.1793],[41.8581,-1.2091],[41.8753,-1.2195],[41.9083,-1.1927],[41.88,-1.196],[41.9033,-1.1493],[41.9268,-1.1279],[41.9599,-1.0698],[41.9777,-1.0276],[41.9612,-0.9699],[41.7977,-0.7816],[41.4917,-0.4289],[41.2911,-0.198],[41.311,-0.1481],[40.9957,-0.1973]]],[[[41.9267,-1.1619],[41.9423,-1.1305],[41.9169,-1.156],[41.9267,-1.1619]]]]},"properties":{"adm2_name":"Badhaadhe","adm2_pcode":"SO2803","adm1_name":"Lower Juba","adm1_pcode":"SO28","center_lat":-0.88988267,"center_lon":41.46470793}},{"type":"Feature","geometry":{"type":"Polygon","coordinates":[[[42.5309,-0.0181],[42.7214,-0.1685],[42.805,-0.0919],[42.8961,0],[42.9932,0.1061],[43.1913,0.3287],[42.7309,0.3118],[42.7268,0.3287],[42.5409,0.1118],[42.5309,-0.0181]]]},"properties":{"adm2_name":"Jamaame","adm2_pcode":"SO2804","adm1_name":"Lower Juba","adm1_pcode":"SO28","center_lat":0.05088829,"center_lon":42.73860446}},{"type":"Feature","geometry":{"type":"MultiPolygon","coordinates":[[[[41.311,-0.1481],[41.2911,-0.198],[41.4917,-0.4289],[41.7977,-0.7816],[41.9612,-0.9699],[41.9653,-0.9165],[41.9487,-0.8802],[41.9753,-0.9156],[41.9669,-0.95],[41.9791,-1.0074],[42.0251,-0.9694],[42.0372,-0.9318],[42.0716,-0.9004],[42.0893,-0.8533],[42.0548,-0.85],[42.0382,-0.8026],[42.0077,-0.8117],[41.9822,-0.7943],[41.9886,-0.7328],[42.0023,-0.7378],[41.9923,-0.7809],[42.0047,-0.7976],[42.0489,-0.7922],[42.0685,-0.771],[42.0485,-0.8269],[42.0549,-0.8432],[42.0799,-0.8327],[42.1135,-0.8344],[42.148,-0.8229],[42.2138,-0.7558],[42.2373,-0.7186],[42.3138,-0.6311],[42.3243,-0.6089],[42.368,-0.5561],[42.3913,-0.5376],[42.4136,-0.5027],[42.4589,-0.4555],[42.5225,-0.3752],[42.5555,-0.3734],[42.5795,-0.312],[42.6155,-0.2663],[42.6607,-0.2288],[42.7214,-0.1685],[42.5309,-0.0181],[42.2161,-0.0274],[41.8675,-0.0376],[41.8415,-0.0401],[41.311,-0.1481]]],[[[42.032,-1.0196],[42.0533,-0.9812],[42.0157,-1.0144],[42.032,-1.0196]]],[[[42.3361,-0.6484],[42.3486,-0.6282],[42.3219,-0.6391],[42.3361,-0.6484]]]]},"properties":{"adm2_name":"Kismaayo","adm2_pcode":"SO2801","adm1_name":"Lower Juba","adm1_pcode":"SO28","center_lat":-0.51418511,"center_lon":41.98644967}},{"type":"Feature","geometry":{"type":"Polygon","coordinates":[[[45.3437,2.0899],[45.391,2.1517],[45.3311,2.1817],[45.341,2.7216],[45.3311,2.7317],[44.9709,2.4117],[44.8811,2.3417],[44.7311,2.2817],[44.6609,2.2416],[44.7311,2.1317],[44.789,2.0253],[44.8409,1.9217],[45.1141,1.9217],[45.1905,1.9573],[45.23,1.9684],[45.2295,2.0191],[45.2083,2.0712],[45.2255,2.0717],[45.2845,2.1047],[45.3437,2.0899]]]},"properties":{"adm2_name":"Afgooye","adm2_pcode":"SO2302","adm1_name":"Lower Shabelle","adm1_pcode":"SO23","center_lat":2.31167603,"center_lon":45.069732}},{"type":"Feature","geometry":{"type":"Polygon","coordinates":[[[44.4953,1.5125],[44.431,1.5017],[44.381,1.5317],[44.1509,1.4417],[43.9465,1.3146],[43.6405,1.1243],[43.3397,0.9373],[43.5208,0.6756],[43.5883,0.7339],[43.6553,0.7989],[43.746,0.8659],[43.7819,0.9087],[43.8465,0.9601],[43.9247,1.0131],[44.0049,1.0803],[44.0219,1.0849],[44.0511,1.1269],[44.1097,1.1725],[44.1327,1.1777],[44.1357,1.2017],[44.1818,1.2497],[44.2061,1.2631],[44.2281,1.2935],[44.3185,1.3737],[44.4857,1.5021],[44.4953,1.5125]]]},"properties":{"adm2_name":"Baraawe","adm2_pcode":"SO2303","adm1_name":"Lower Shabelle","adm1_pcode":"SO23","center_lat":1.09829712,"center_lon":43.81408974}},{"type":"Feature","geometry":{"type":"Polygon","coordinates":[[[43.5854,1.7635],[43.8998,1.5846],[44.1509,1.4417],[44.381,1.5317],[44.4211,1.5617],[44.471,1.6317],[44.5109,1.6717],[44.1855,1.7886],[43.9017,1.8906],[43.5854,1.7635]]]},"properties":{"adm2_name":"Kurtunwaarey","adm2_pcode":"SO2304","adm1_name":"Lower Shabelle","adm1_pcode":"SO23","center_lat":1.65169869,"center_lon":44.13640331}},{"type":"Feature","geometry":{"type":"Polygon","coordinates":[[[44.8409,1.9217],[44.5109,1.6717],[44.471,1.6317],[44.4211,1.5617],[44.381,1.5317],[44.431,1.5017],[44.4953,1.5125],[44.5905,1.5839],[44.6331,1.6113],[44.6707,1.6447],[44.7271,1.6773],[44.7733,1.7131],[44.8917,1.7895],[45.0183,1.8615],[45.0317,1.8751],[45.1141,1.9217],[44.8409,1.9217]]]},"properties":{"adm2_name":"Marka","adm2_pcode":"SO2301","adm1_name":"Lower Shabelle","adm1_pcode":"SO23","center_lat":1.71160889,"center_lon":44.66436438}},{"type":"Feature","geometry":{"type":"Polygon","coordinates":[[[43.9017,1.8906],[44.1855,1.7886],[44.5109,1.6717],[44.8409,1.9217],[44.789,2.0253],[44.7311,2.1317],[44.6609,2.2416],[44.6495,2.2351],[44.6509,2.2217],[44.336,2.0826],[43.9017,1.8906]]]},"properties":{"adm2_name":"Qoryooley","adm2_pcode":"SO2305","adm1_name":"Lower Shabelle","adm1_pcode":"SO23","center_lat":1.95761532,"center_lon":44.43791949}},{"type":"Feature","geometry":{"type":"Polygon","coordinates":[[[43.3109,1.6267],[42.9809,1.4617],[43.261,1.0465],[43.3397,0.9373],[43.6405,1.1243],[43.9465,1.3146],[44.1509,1.4417],[43.8998,1.5846],[43.5854,1.7635],[43.3109,1.6267]]]},"properties":{"adm2_name":"Sablaale","adm2_pcode":"SO2306","adm1_name":"Lower Shabelle","adm1_pcode":"SO23","center_lat":1.33837081,"center_lon":43.52441251}},{"type":"Feature","geometry":{"type":"Polygon","coordinates":[[[44.661,3.2515],[44.6911,3.0517],[44.641,2.8116],[44.661,2.7516],[44.6211,2.4817],[44.6495,2.2351],[44.6609,2.2416],[44.7311,2.2817],[44.8811,2.3417],[44.9709,2.4117],[45.3311,2.7317],[45.3336,2.7323],[45.1211,3.0417],[45.071,3.2515],[44.7809,3.2715],[44.661,3.2515]]]},"properties":{"adm2_name":"Wanla Weyn","adm2_pcode":"SO2307","adm1_name":"Lower Shabelle","adm1_pcode":"SO23","center_lat":2.76123524,"center_lon":44.98574277}},{"type":"Feature","geometry":{"type":"Polygon","coordinates":[[[42.9532,1.4825],[42.5034,1.5007],[42.2309,1.5117],[42.1787,1.3892],[42.139,1.3078],[42.4309,1.3217],[42.5146,1.0708],[42.6209,0.7519],[43.0239,0.9373],[43.261,1.0465],[42.9809,1.4617],[42.9532,1.4825]]]},"properties":{"adm2_name":"Bu'aale","adm2_pcode":"SO2701","adm1_name":"Middle Juba","adm1_pcode":"SO27","center_lat":1.11705931,"center_lon":42.85628265}},{"type":"Feature","geometry":{"type":"Polygon","coordinates":[[[42.7268,0.3287],[42.7309,0.3118],[43.1913,0.3287],[43.2935,0.4349],[43.3765,0.5333],[43.5208,0.6756],[43.3397,0.9373],[43.261,1.0465],[43.0239,0.9373],[42.6209,0.7519],[42.6318,0.7184],[42.7268,0.3287]]]},"properties":{"adm2_name":"Jilib","adm2_pcode":"SO2702","adm1_name":"Middle Juba","adm1_pcode":"SO27","center_lat":0.69708152,"center_lon":43.07144586}},{"type":"Feature","geometry":{"type":"Polygon","coordinates":[[[42.4009,1.9517],[42.2319,1.9495],[41.6409,1.9417],[41.5583,1.6865],[41.4209,1.2617],[41.7713,1.2841],[42.139,1.3078],[42.1787,1.3892],[42.2309,1.5117],[42.5034,1.5007],[42.9532,1.4825],[42.8612,1.5593],[42.5209,1.8817],[42.4009,1.9517]]]},"properties":{"adm2_name":"Saakow","adm2_pcode":"SO2703","adm1_name":"Middle Juba","adm1_pcode":"SO27","center_lat":1.60655924,"center_lon":42.17191131}},{"type":"Feature","geometry":{"type":"Polygon","coordinates":[[[46.3911,3.8914],[46.2252,3.7988],[46.0911,3.5715],[46.0611,3.5315],[46.4235,3.4008],[46.671,3.3115],[46.7554,3.1532],[46.8384,3.2417],[46.8721,3.2933],[47.0043,3.4399],[47.038,3.4723],[46.7304,3.6717],[46.3911,3.8914]]]},"properties":{"adm2_name":"Adan Yabaal","adm2_pcode":"SO2102","adm1_name":"Middle Shabelle","adm1_pcode":"SO21","center_lat":3.5120513,"center_lon":46.54593142}},{"type":"Feature","geometry":{"type":"Polygon","coordinates":[[[45.6069,2.1849],[45.6691,2.2185],[45.8469,2.3255],[45.9009,2.3521],[46.0243,2.4417],[46.0441,2.4665],[46.1177,2.5313],[46.1292,2.5555],[46.1211,2.5717],[46.0911,2.5717],[46.0411,2.6917],[45.961,2.7317],[45.871,2.7416],[45.531,2.7216],[45.501,2.7316],[45.461,2.7616],[45.3336,2.7323],[45.3311,2.7317],[45.341,2.7216],[45.3311,2.1817],[45.391,2.1517],[45.461,2.1716],[45.6069,2.1849]]]},"properties":{"adm2_name":"Balcad","adm2_pcode":"SO2103","adm1_name":"Middle Shabelle","adm1_pcode":"SO21","center_lat":2.45581055,"center_lon":45.68534047}},{"type":"Feature","geometry":{"type":"Polygon","coordinates":[[[45.941,3.2515],[45.961,2.7317],[46.0411,2.6917],[46.0911,2.5717],[46.1211,2.5717],[46.1292,2.5555],[46.1704,2.5951],[46.2283,2.6619],[46.2829,2.6997],[46.3014,2.7388],[46.3306,2.7582],[46.3453,2.7867],[46.4054,2.8287],[46.4465,2.8742],[46.5757,2.9719],[46.7554,3.1532],[46.671,3.3115],[46.4235,3.4008],[46.0611,3.5315],[46.0309,3.4997],[46.0125,3.4659],[45.941,3.2515]]]},"properties":{"adm2_name":"Cadale","adm2_pcode":"SO2104","adm1_name":"Middle Shabelle","adm1_pcode":"SO21","center_lat":3.0679233,"center_lon":46.30984373}},{"type":"Feature","geometry":{"type":"Polygon","coordinates":[[[45.071,3.2515],[45.1211,3.0417],[45.3336,2.7323],[45.461,2.7616],[45.501,2.7316],[45.531,2.7216],[45.871,2.7416],[45.961,2.7317],[45.941,3.2515],[45.6434,3.2294],[45.2971,3.2035],[45.2709,3.2015],[45.1509,3.2115],[45.071,3.2515]]]},"properties":{"adm2_name":"Jowhar","adm2_pcode":"SO2101","adm1_name":"Middle Shabelle","adm1_pcode":"SO21","center_lat":2.98592068,"center_lon":45.555283}},{"type":"Feature","geometry":{"type":"Polygon","coordinates":[[[47.601,6.2813],[47.6889,6.6034],[47.8911,6.7713],[48.1007,6.7608],[48.491,6.7412],[48.5132,7.1181],[48.5315,7.4284],[48.501,7.4112],[48.1009,7.4754],[47.5602,7.563],[47.5424,7.5482],[47.3593,7.3614],[47.531,7.1912],[47.3788,7.0246],[47.111,6.7312],[46.895,6.8867],[46.5383,6.521],[46.5415,6.5177],[46.9975,6.4161],[47.2959,6.3495],[47.601,6.2813]]]},"properties":{"adm2_name":"Gaalkacyo","adm2_pcode":"SO1801","adm1_name":"Mudug","adm1_pcode":"SO18","center_lat":6.92890205,"center_lon":47.89672675}},{"type":"Feature","geometry":{"type":"Polygon","coordinates":[[[47.3593,7.3614],[47.147,7.1445],[46.895,6.8867],[47.111,6.7312],[47.3788,7.0246],[47.531,7.1912],[47.3593,7.3614]]]},"properties":{"adm2_name":"Galdogob","adm2_pcode":"SO1802","adm1_name":"Mudug","adm1_pcode":"SO18","center_lat":7.04503089,"center_lon":47.22355376}},{"type":"Feature","geometry":{"type":"Polygon","coordinates":[[[47.3517,5.7529],[47.471,5.5713],[47.608,5.1995],[47.6411,5.2015],[48.0457,5.0899],[48.2966,5.0302],[48.6304,5.4652],[48.7261,5.6239],[48.8748,5.8564],[48.9871,6.0479],[49.0618,6.213],[49.0837,6.2825],[49.0792,6.3227],[49.0852,6.3913],[49.1133,6.4873],[49.1641,6.6011],[48.671,6.6312],[48.491,6.7412],[48.1007,6.7608],[47.8911,6.7713],[47.6889,6.6034],[47.601,6.2813],[47.5188,6.1069],[47.3517,5.7529]]]},"properties":{"adm2_name":"Hobyo","adm2_pcode":"SO1803","adm1_name":"Mudug","adm1_pcode":"SO18","center_lat":5.90892148,"center_lon":48.16568856}},{"type":"Feature","geometry":{"type":"Polygon","coordinates":[[[48.491,6.7412],[48.671,6.6312],[49.1641,6.6011],[49.2071,6.7035],[49.2111,6.7337],[49.2857,6.8555],[49.3123,6.9079],[49.3612,6.9802],[49.3974,7.0495],[49.4263,7.0815],[49.4753,7.1599],[49.6039,7.3301],[49.6507,7.3993],[49.5011,7.5711],[49.4411,7.5811],[49.191,7.7011],[49.0515,7.7099],[49.0311,7.7111],[48.5315,7.4284],[48.5132,7.1181],[48.491,6.7412]]]},"properties":{"adm2_name":"Jariiban","adm2_pcode":"SO1804","adm1_name":"Mudug","adm1_pcode":"SO18","center_lat":7.13902681,"center_lon":48.98835974}},{"type":"Feature","geometry":{"type":"Polygon","coordinates":[[[47.5017,4.4953],[47.6055,4.4419],[47.8348,4.3329],[47.8743,4.3773],[47.9394,4.4389],[47.9685,4.4757],[48.0585,4.6295],[48.0863,4.6675],[48.1678,4.8202],[48.1974,4.8836],[48.2966,5.0302],[48.0457,5.0899],[47.6411,5.2015],[47.608,5.1995],[47.6033,5.1419],[47.5017,4.4953]]]},"properties":{"adm2_name":"Xarardheere","adm2_pcode":"SO1805","adm1_name":"Mudug","adm1_pcode":"SO18","center_lat":4.78595256,"center_lon":47.84846961}},{"type":"Feature","geometry":{"type":"Polygon","coordinates":[[[48.5315,7.4284],[49.0311,7.7111],[49.0515,7.7099],[49.191,8.0211],[48.4246,8.1585],[48.131,8.2111],[47.9206,8.0007],[47.9863,8.0001],[47.5602,7.563],[48.1009,7.4754],[48.501,7.4112],[48.5315,7.4284]]]},"properties":{"adm2_name":"Burtinle","adm2_pcode":"SO1702","adm1_name":"Nugaal","adm1_pcode":"SO17","center_lat":7.86968691,"center_lon":48.49116333}},{"type":"Feature","geometry":{"type":"Polygon","coordinates":[[[49.8911,8.4011],[49.8411,8.3311],[49.7811,8.5311],[49.6811,8.5811],[49.4511,8.5911],[49.3001,8.6854],[49.1811,8.4111],[49.2111,8.1011],[49.191,8.0211],[49.0515,7.7099],[49.191,7.7011],[49.4411,7.5811],[49.5011,7.5711],[49.6507,7.3993],[49.6789,7.4411],[49.7421,7.5599],[49.7667,7.6171],[49.7803,7.6701],[49.8238,7.7254],[49.8364,7.7897],[49.8217,7.7899],[49.8096,7.8183],[49.8162,7.8816],[49.8273,7.9219],[49.8921,8.0001],[49.9844,8.0958],[50.0621,8.1365],[50.1292,8.1985],[50.1462,8.2565],[50.1471,8.2836],[50.1761,8.3291],[50.0511,8.4411],[49.9311,8.4611],[49.8911,8.4011]]]},"properties":{"adm2_name":"Eyl","adm2_pcode":"SO1703","adm1_name":"Nugaal","adm1_pcode":"SO17","center_lat":8.03914543,"center_lon":49.56220097}},{"type":"Feature","geometry":{"type":"Polygon","coordinates":[[[49.0811,9.1405],[48.731,8.781],[48.561,8.781],[48.3365,8.5437],[48.051,8.2411],[48.131,8.2111],[48.4246,8.1585],[49.191,8.0211],[49.2111,8.1011],[49.1811,8.4111],[49.3001,8.6854],[49.1811,8.771],[49.1111,8.901],[49.0811,9.1405]]]},"properties":{"adm2_name":"Garoowe","adm2_pcode":"SO1701","adm1_name":"Nugaal","adm1_pcode":"SO17","center_lat":8.59332767,"center_lon":48.82211464}},{"type":"Feature","geometry":{"type":"Polygon","coordinates":[[[47.1009,9.4429],[47.3611,9.9109],[47.3811,10.1709],[47.0111,10.5609],[46.9411,10.6309],[46.8011,10.7909],[46.7879,10.8106],[46.7169,10.7768],[46.6668,10.745],[46.6102,10.7272],[46.5884,10.7275],[46.5188,10.7104],[46.4497,10.6807],[46.3981,10.6815],[46.3447,10.6897],[46.292,10.747],[46.2362,10.7804],[46.2061,10.7807],[46.0969,10.7624],[46.0315,10.773],[46.0173,10.296],[46.0111,10.0809],[46.0495,10.0503],[46.4651,9.7201],[46.8411,9.4211],[46.9111,9.431],[47.1009,9.4429]]]},"properties":{"adm2_name":"Ceel Afweyn","adm2_pcode":"SO1502","adm1_name":"Sanaag","adm1_pcode":"SO15","center_lat":10.13970386,"center_lon":46.69572893}},{"type":"Feature","geometry":{"type":"Polygon","coordinates":[[[47.1009,9.4429],[47.3957,9.4607],[48.0795,9.5025],[48.5795,9.5421],[48.6033,10.2788],[48.6111,10.5209],[48.5811,10.5309],[48.4811,10.6209],[48.4311,10.6509],[48.3811,10.7209],[47.9811,11.0409],[47.9101,11.1206],[47.8642,11.1102],[47.8022,11.122],[47.7205,11.0947],[47.6744,11.0902],[47.5769,11.1505],[47.5574,11.1694],[47.5063,11.181],[47.4221,11.1754],[47.2563,11.1144],[47.2181,11.0863],[47.1505,11.0625],[47.1423,11.0411],[47.1127,11.0141],[47.1075,10.9925],[47.0503,10.9635],[47.0173,10.9607],[46.9848,10.9266],[46.9377,10.914],[46.9009,10.8921],[46.8705,10.8585],[46.7879,10.8106],[46.8011,10.7909],[46.9411,10.6309],[47.0111,10.5609],[47.3811,10.1709],[47.3611,9.9109],[47.1009,9.4429]]]},"properties":{"adm2_name":"Ceerigaabo","adm2_pcode":"SO1501","adm1_name":"Sanaag","adm1_pcode":"SO15","center_lat":10.33854421,"center_lon":47.91359232}},{"type":"Feature","geometry":{"type":"Polygon","coordinates":[[[48.9191,11.2387],[48.8796,11.2465],[48.7737,11.2907],[48.7019,11.3075],[48.6621,11.3225],[48.6041,11.307],[48.5174,11.3058],[48.4621,11.2803],[48.4041,11.2808],[48.3601,11.2698],[48.3173,11.2301],[48.2881,11.2134],[48.2417,11.2045],[48.1535,11.1291],[48.0927,11.1287],[48.0246,11.115],[47.9718,11.1124],[47.9101,11.1206],[47.9811,11.0409],[48.3811,10.7209],[48.4311,10.6509],[48.4811,10.6209],[48.5811,10.5309],[48.6111,10.5209],[48.6033,10.2788],[48.5795,9.5421],[49.0611,9.5711],[49.0553,9.7958],[49.0411,10.3509],[49.0311,10.7809],[48.9191,11.2387]]]},"properties":{"adm2_name":"Laasqoray","adm2_pcode":"SO1503","adm1_name":"Sanaag","adm1_pcode":"SO15","center_lat":10.46154385,"center_lon":48.82380357}},{"type":"Feature","geometry":{"type":"Polygon","coordinates":[[[46.0495,10.0503],[46.0909,9.8006],[46.166,9.3475],[46.221,9.001],[46.1911,8.821],[46.6186,8.7986],[46.9211,8.7826],[46.9207,8.8433],[46.9142,9.241],[46.9111,9.431],[46.8411,9.4211],[46.4651,9.7201],[46.0495,10.0503]]]},"properties":{"adm2_name":"Caynabo","adm2_pcode":"SO1402","adm1_name":"Sool","adm1_pcode":"SO14","center_lat":9.38430748,"center_lon":46.53587295}},{"type":"Feature","geometry":{"type":"Polygon","coordinates":[[[48.131,8.2111],[48.051,8.2411],[48.3365,8.5437],[48.561,8.781],[48.041,8.7811],[47.5596,8.8082],[47.3916,8.8172],[46.9207,8.8433],[46.9211,8.7826],[46.9211,8.7611],[47.0011,8.7511],[47.1011,8.5611],[47.0126,8.0001],[47.3067,8.0002],[47.5778,8.0001],[47.9206,8.0007],[48.131,8.2111]]]},"properties":{"adm2_name":"Laas Caanood","adm2_pcode":"SO1401","adm1_name":"Sool","adm1_pcode":"SO14","center_lat":8.43456583,"center_lon":47.65733026}},{"type":"Feature","geometry":{"type":"Polygon","coordinates":[[[49.0611,9.5711],[48.5795,9.5421],[48.0795,9.5025],[48.0609,9.1555],[48.041,8.7811],[48.561,8.781],[48.731,8.781],[49.0811,9.1405],[49.0611,9.5711]]]},"properties":{"adm2_name":"Taleex","adm2_pcode":"SO1403","adm1_name":"Sool","adm1_pcode":"SO14","center_lat":9.16944907,"center_lon":48.57076799}},{"type":"Feature","geometry":{"type":"Polygon","coordinates":[[[46.9111,9.431],[46.9142,9.241],[46.9207,8.8433],[47.3916,8.8172],[47.5596,8.8082],[48.041,8.7811],[48.0609,9.1555],[48.0795,9.5025],[47.3957,9.4607],[47.1009,9.4429],[46.9111,9.431]]]},"properties":{"adm2_name":"Xudun","adm2_pcode":"SO1404","adm1_name":"Sool","adm1_pcode":"SO14","center_lat":9.03929728,"center_lon":47.48609329}},{"type":"Feature","geometry":{"type":"Polygon","coordinates":[[[46.0111,10.0809],[45.9074,10.0997],[45.8311,10.0309],[45.8011,9.9211],[45.8511,9.7809],[45.5842,9.8231],[45.2811,9.8709],[45.281,9.5714],[45.2823,9.3027],[45.291,8.5713],[45.4817,8.5081],[45.6117,8.4679],[46.1139,8.2999],[46.251,8.2553],[46.2274,8.4881],[46.1911,8.821],[46.221,9.001],[46.166,9.3475],[46.0909,9.8006],[46.0495,10.0503],[46.0111,10.0809]]]},"properties":{"adm2_name":"Burco","adm2_pcode":"SO1301","adm1_name":"Togdheer","adm1_pcode":"SO13","center_lat":9.19395477,"center_lon":45.73698304}},{"type":"Feature","geometry":{"type":"Polygon","coordinates":[[[46.1911,8.821],[46.2274,8.4881],[46.251,8.2553],[46.4509,8.1889],[46.6012,8.1366],[47.0126,8.0001],[47.1011,8.5611],[47.0011,8.7511],[46.9211,8.7611],[46.9211,8.7826],[46.6186,8.7986],[46.1911,8.821]]]},"properties":{"adm2_name":"Buuhoodle","adm2_pcode":"SO1302","adm1_name":"Togdheer","adm1_pcode":"SO13","center_lat":8.33615001,"center_lon":46.6542156}},{"type":"Feature","geometry":{"type":"Polygon","coordinates":[[[45.2811,9.8709],[44.8977,9.9411],[44.831,9.861],[44.7697,9.6206],[44.6911,9.3111],[44.691,8.772],[44.8689,8.71],[45.239,8.5867],[45.291,8.5713],[45.2823,9.3027],[45.281,9.5714],[45.2811,9.8709]]]},"properties":{"adm2_name":"Owdweyne","adm2_pcode":"SO1303","adm1_name":"Togdheer","adm1_pcode":"SO13","center_lat":9.25862042,"center_lon":44.98696769}},{"type":"Feature","geometry":{"type":"Polygon","coordinates":[[[45.9074,10.0997],[45.655,10.1226],[45.1011,10.1709],[44.8977,9.9411],[45.2811,9.8709],[45.5842,9.8231],[45.8511,9.7809],[45.8011,9.9211],[45.8311,10.0309],[45.9074,10.0997]]]},"properties":{"adm2_name":"Sheikh","adm2_pcode":"SO1304","adm1_name":"Togdheer","adm1_pcode":"SO13","center_lat":9.98644012,"center_lon":45.37836002}},{"type":"Feature","geometry":{"type":"Polygon","coordinates":[[[44.1509,10.3209],[44.2311,10.2809],[44.5653,10.0604],[44.7311,9.9509],[44.8977,9.9411],[45.1011,10.1709],[45.655,10.1226],[45.9074,10.0997],[46.0111,10.0809],[46.0173,10.296],[46.0315,10.773],[45.9747,10.7811],[45.912,10.8215],[45.8545,10.8394],[45.8102,10.8673],[45.7803,10.8607],[45.7557,10.8303],[45.7155,10.8171],[45.6815,10.7925],[45.6181,10.7654],[45.5972,10.7649],[45.572,10.7262],[45.5143,10.6913],[45.4801,10.6838],[45.4607,10.6639],[45.3246,10.6601],[45.2333,10.562],[45.1294,10.5156],[45.0881,10.5085],[45.0479,10.475],[44.9856,10.4508],[44.9957,10.4335],[44.9435,10.4108],[44.8806,10.4063],[44.8275,10.4176],[44.7259,10.4175],[44.6587,10.4015],[44.6157,10.3821],[44.5646,10.3796],[44.4816,10.399],[44.4477,10.4009],[44.4104,10.3918],[44.3666,10.4013],[44.2882,10.4314],[44.2367,10.4731],[44.1509,10.3209]]]},"properties":{"adm2_name":"Berbera","adm2_pcode":"SO1202","adm1_name":"Woqooyi Galbeed","adm1_pcode":"SO12","center_lat":10.40333605,"center_lon":45.34389878}},{"type":"Feature","geometry":{"type":"Polygon","coordinates":[[[43.3709,9.801],[43.2897,9.6573],[43.2993,9.6111],[43.3407,9.6003],[43.3983,9.5529],[43.4455,9.4449],[43.4915,9.4015],[43.5554,9.3755],[43.5709,9.3911],[43.7718,9.6533],[43.931,9.861],[44.1011,10.1309],[44.041,10.171],[43.8209,10.2909],[43.7609,10.3009],[43.7209,10.2609],[43.5309,9.9909],[43.3709,9.801]]]},"properties":{"adm2_name":"Gebiley","adm2_pcode":"SO1203","adm1_name":"Woqooyi Galbeed","adm1_pcode":"SO12","center_lat":9.82498164,"center_lon":43.64725633}},{"type":"Feature","geometry":{"type":"Polygon","coordinates":[[[44.041,10.171],[44.1011,10.1309],[43.931,9.861],[43.7718,9.6533],[43.5709,9.3911],[43.5554,9.3755],[43.6017,9.3591],[43.6467,9.3583],[43.8719,9.1301],[43.8973,9.1005],[44.0059,8.9967],[44.3241,8.8929],[44.691,8.772],[44.6911,9.3111],[44.7697,9.6206],[44.831,9.861],[44.8977,9.9411],[44.7311,9.9509],[44.5653,10.0604],[44.2311,10.2809],[44.1509,10.3209],[44.041,10.171]]]},"properties":{"adm2_name":"Hargeysa","adm2_pcode":"SO1201","adm1_name":"Woqooyi Galbeed","adm1_pcode":"SO12","center_lat":9.54619998,"center_lon":44.22031006}}]}