{"type":"FeatureCollection","features":[{"type":"Feature","geometry":{"type":"MultiPolygon","coordinates":[[[[44.2367,10.4731],[44.2017,10.5077],[44.1486,10.5476],[44.1175,10.558],[44.0819,10.5849],[44.0644,10.6087],[43.995,10.6621],[43.9567,10.6813],[43.8571,10.7674],[43.7891,10.8354],[43.7302,10.9025],[43.6922,10.9408],[43.5986,11.0823],[43.565,11.1471],[43.556,11.1789],[43.5214,11.183],[43.4961,11.2436],[43.4934,11.2902],[43.4795,11.3291],[43.4984,11.3712],[43.4597,11.3513],[43.4276,11.3789],[43.391,11.3798],[43.3543,11.4137],[43.3436,11.433],[43.3312,11.4263],[43.3151,11.465],[43.2905,11.4904],[43.3059,11.4623],[43.2875,11.4708],[43.2613,11.4621],[43.061,11.1448],[42.9681,10.9975],[42.9101,10.9139],[42.7665,10.722],[42.7229,10.6515],[42.693,10.6252],[42.6833,10.5925],[42.6985,10.5463],[42.7467,10.5123],[42.7631,10.4567],[42.7919,10.4041],[42.8049,10.3519],[42.8327,10.2779],[42.8583,10.2341],[42.8813,10.2071],[43.0107,10.0915],[43.0175,10.0807],[43.0859,9.9089],[43.1155,9.8889],[43.1381,9.8863],[43.1499,9.8995],[43.2569,9.8427],[43.2897,9.6573],[43.3109,9.6911],[43.3709,9.801],[43.5309,9.9909],[43.7209,10.2609],[43.7609,10.3009],[43.8209,10.2909],[44.041,10.171],[44.1509,10.3209],[44.2367,10.4731]]],[[[43.4619,11.4243],[43.4691,11.4481],[43.4507,11.4319],[43.4619,11.4243]]]]},"properties":{"adm1_name":"Awdal","adm1_pcode":"SO11","adm0_name":"Somalia","center_lat":10.57820415,"center_lon":43.38879616}},{"type":"Feature","geometry":{"type":"Polygon","coordinates":[[[44.5921,4.9348],[44.0151,4.9604],[43.8139,4.91],[43.6591,4.868],[43.4349,4.7947],[43.3243,4.7414],[43.2353,4.6963],[43.1212,4.6305],[43.0801,4.6027],[43.0443,4.5721],[43.0261,4.5423],[43.0073,4.4677],[42.9693,4.4033],[42.9257,4.3481],[42.8854,4.3076],[43.0514,4.0165],[43.1011,3.9315],[43.1409,3.8515],[43.1209,3.6715],[43.4109,3.5715],[43.5809,3.6115],[43.6809,3.7215],[43.7509,3.8515],[43.7909,3.8815],[43.8809,3.9215],[43.9509,3.9215],[44.1809,3.8515],[44.2911,3.6115],[44.3111,3.5715],[44.3111,3.3915],[44.2809,3.3415],[44.4109,3.2615],[44.611,3.2715],[44.661,3.2515],[44.7809,3.2715],[44.7709,3.7015],[44.801,3.8615],[44.7511,4.0715],[44.6811,4.4115],[44.5921,4.9348]]]},"properties":{"adm1_name":"Bakool","adm1_pcode":"SO25","adm0_name":"Somalia","center_lat":4.15475752,"center_lon":43.85322331}},{"type":"Feature","geometry":{"type":"Polygon","coordinates":[[[45.23,1.9684],[45.2357,1.9765],[45.3215,2.0187],[45.3439,2.0345],[45.4009,2.0581],[45.4463,2.0903],[45.4793,2.1073],[45.6069,2.1849],[45.461,2.1716],[45.391,2.1517],[45.3437,2.0899],[45.2845,2.1047],[45.2641,2.0931],[45.2514,2.1033],[45.2459,2.0811],[45.2083,2.0712],[45.2296,2.0188],[45.23,1.9684]]]},"properties":{"adm1_name":"Banadir","adm1_pcode":"SO22","adm0_name":"Somalia","center_lat":2.07676843,"center_lon":45.3268053}},{"type":"Feature","geometry":{"type":"Polygon","coordinates":[[[50.1761,8.3291],[50.1913,8.3657],[50.2239,8.4051],[50.2446,8.4462],[50.3061,8.5065],[50.332,8.5509],[50.3257,8.5999],[50.3385,8.6502],[50.3795,8.6963],[50.3878,8.7483],[50.4047,8.7809],[50.4079,8.826],[50.4174,8.8531],[50.4434,8.8932],[50.5025,8.9495],[50.5748,9.0072],[50.5864,9.0276],[50.6215,9.0515],[50.6409,9.0771],[50.6512,9.119],[50.6457,9.1725],[50.655,9.2035],[50.7053,9.2681],[50.7383,9.2877],[50.8101,9.3847],[50.8466,9.4657],[50.806,9.5015],[50.7986,9.5606],[50.807,9.6171],[50.8239,9.6574],[50.8349,9.7348],[50.8322,9.7477],[50.8514,9.8546],[50.8683,9.8762],[50.8863,9.9647],[50.8983,9.992],[50.8959,10.0249],[50.8821,10.0957],[50.8939,10.1349],[50.9023,10.191],[50.894,10.2565],[50.9001,10.3107],[51.0159,10.3823],[51.0471,10.3959],[51.1098,10.4053],[51.1617,10.4177],[51.2121,10.4237],[51.2449,10.4219],[51.2685,10.4029],[51.2685,10.3763],[51.2893,10.3684],[51.3407,10.3743],[51.374,10.3622],[51.3711,10.3775],[51.3927,10.3945],[51.413,10.4397],[51.388,10.4748],[51.3513,10.4801],[51.3185,10.4707],[51.2914,10.4793],[51.2367,10.5066],[51.1992,10.5312],[51.1815,10.5589],[51.1829,10.5417],[51.2005,10.5091],[51.1967,10.4741],[51.2357,10.4361],[51.2284,10.4308],[51.1833,10.4334],[51.1201,10.4301],[51.0637,10.4187],[51.0427,10.4044],[51.0295,10.4153],[51.0259,10.4421],[51.0399,10.4569],[51.0845,10.4616],[51.1082,10.4943],[51.1053,10.5499],[51.1239,10.5597],[51.1658,10.5663],[51.1677,10.5796],[51.1509,10.6143],[51.1454,10.6593],[51.1313,10.6729],[51.1299,10.7541],[51.1227,10.8771],[51.1166,10.9399],[51.1242,11.0053],[51.1323,11.0388],[51.1785,11.1315],[51.1769,11.1471],[51.1111,11.1559],[51.0864,11.1869],[51.0758,11.2198],[51.074,11.2624],[51.084,11.3389],[51.1206,11.4285],[51.1255,11.4582],[51.1198,11.4917],[51.1739,11.5763],[51.1871,11.5875],[51.2254,11.6419],[51.2407,11.6505],[51.2542,11.6946],[51.2445,11.7123],[51.2556,11.7311],[51.2567,11.7567],[51.2846,11.8116],[51.2847,11.8337],[51.2731,11.8418],[51.2322,11.8354],[51.1822,11.8507],[51.1403,11.8739],[51.1001,11.87],[51.0544,11.8726],[50.9559,11.9218],[50.9041,11.9398],[50.8586,11.9437],[50.8058,11.9794],[50.7265,11.954],[50.6734,11.9331],[50.6384,11.9408],[50.6233,11.9271],[50.5815,11.9121],[50.5525,11.8844],[50.5371,11.8399],[50.5625,11.8837],[50.5413,11.8337],[50.5311,11.7949],[50.4929,11.7316],[50.4719,11.7065],[50.4315,11.6704],[50.3877,11.6563],[50.3567,11.6367],[50.2852,11.6026],[50.2605,11.5806],[50.2157,11.5617],[50.1672,11.554],[50.1375,11.537],[50.1221,11.5375],[50.0893,11.5109],[50.064,11.5037],[49.9799,11.5018],[49.9549,11.5092],[49.9273,11.5047],[49.8615,11.4681],[49.8241,11.4574],[49.7621,11.4563],[49.7243,11.4628],[49.6922,11.4773],[49.6558,11.459],[49.5758,11.4512],[49.5469,11.4395],[49.5285,11.4027],[49.5095,11.3809],[49.4743,11.3733],[49.422,11.3335],[49.3862,11.3278],[49.296,11.3328],[49.2729,11.3128],[49.2397,11.2985],[49.1439,11.2787],[49.0512,11.2638],[48.9553,11.2384],[48.9191,11.2387],[49.0311,10.7809],[49.0364,10.5497],[49.0464,10.1437],[49.0553,9.7958],[49.0611,9.5711],[49.0811,9.1405],[49.1111,8.901],[49.1811,8.771],[49.3001,8.6854],[49.4511,8.5911],[49.6811,8.5811],[49.7811,8.5311],[49.8411,8.3311],[49.9311,8.4611],[50.0511,8.4411],[50.1761,8.3291]]]},"properties":{"adm1_name":"Bari","adm1_pcode":"SO16","adm0_name":"Somalia","center_lat":10.16398096,"center_lon":49.97231933}},{"type":"Feature","geometry":{"type":"Polygon","coordinates":[[[43.1209,3.6715],[43.1021,3.257],[43.1009,3.0616],[42.9309,3.0416],[42.6009,3.0716],[42.5427,2.7511],[42.4585,2.2759],[42.4009,1.9517],[42.5209,1.8817],[42.8612,1.5593],[42.9809,1.4617],[43.2434,1.5929],[43.5845,1.7631],[43.8809,1.8817],[44.0973,1.9772],[44.336,2.0826],[44.6509,2.2217],[44.6211,2.4817],[44.661,2.7516],[44.641,2.8116],[44.6911,3.0517],[44.661,3.2515],[44.611,3.2715],[44.4109,3.2615],[44.2809,3.3415],[44.3111,3.3915],[44.3111,3.5715],[44.2911,3.6115],[44.1809,3.8515],[43.9509,3.9215],[43.8809,3.9215],[43.7909,3.8815],[43.7509,3.8515],[43.6809,3.7215],[43.5809,3.6115],[43.4109,3.5715],[43.1209,3.6715]]]},"properties":{"adm1_name":"Bay","adm1_pcode":"SO24","adm0_name":"Somalia","center_lat":2.69480106,"center_lon":43.59261011}},{"type":"Feature","geometry":{"type":"Polygon","coordinates":[[[47.8348,4.3329],[47.6055,4.4419],[47.5017,4.4953],[47.6033,5.1419],[47.608,5.1995],[47.471,5.5713],[47.3517,5.7529],[47.5188,6.1069],[47.601,6.2813],[47.2959,6.3495],[46.9975,6.4161],[46.5415,6.5177],[46.5383,6.521],[46.3101,6.2867],[45.8656,5.8292],[45.4811,5.4329],[45.6555,5.1785],[45.711,5.1114],[46.041,5.0314],[46.231,5.0814],[46.211,4.9414],[46.1111,4.7415],[46.151,4.4315],[46.3968,4.2348],[46.3911,3.8914],[46.7304,3.6717],[47.038,3.4723],[47.0749,3.5058],[47.1291,3.5648],[47.2057,3.6581],[47.2875,3.7415],[47.3779,3.8269],[47.4285,3.8695],[47.6071,4.0755],[47.715,4.1936],[47.751,4.226],[47.8348,4.3329]]]},"properties":{"adm1_name":"Galgaduud","adm1_pcode":"SO19","adm0_name":"Somalia","center_lat":4.98639131,"center_lon":46.89816075}},{"type":"Feature","geometry":{"type":"Polygon","coordinates":[[[42.8854,4.3076],[42.8491,4.2795],[42.8173,4.2649],[42.7099,4.2618],[42.6717,4.2505],[42.5879,4.2154],[42.5267,4.2029],[42.4755,4.2027],[42.3458,4.1876],[42.1967,4.1789],[42.0877,4.1794],[42.0511,4.1515],[42,4.0934],[41.9791,4.0952],[41.9463,4.0557],[41.9491,4.0279],[41.9101,3.9823],[41.6709,3.6399],[41.3333,3.1565],[40.9957,2.8217],[40.9954,2.6443],[40.9949,2.3117],[40.9955,1.7476],[40.9957,1.5741],[40.9957,1.2327],[41.4209,1.2617],[41.5583,1.6865],[41.6409,1.9417],[41.7791,1.9435],[42.2319,1.9495],[42.4009,1.9517],[42.4585,2.2759],[42.5427,2.7511],[42.6009,3.0716],[42.9309,3.0416],[43.1009,3.0616],[43.1021,3.257],[43.1209,3.6715],[43.1409,3.8515],[43.1011,3.9315],[43.0514,4.0165],[42.8854,4.3076]]]},"properties":{"adm1_name":"Gedo","adm1_pcode":"SO26","adm0_name":"Somalia","center_lat":2.78642157,"center_lon":41.77240065}},{"type":"Feature","geometry":{"type":"Polygon","coordinates":[[[44.7809,3.2715],[45.071,3.2515],[45.1509,3.2115],[45.2709,3.2015],[45.5145,3.2198],[45.941,3.2515],[46.0125,3.4659],[46.0309,3.4997],[46.0611,3.5315],[46.0911,3.5715],[46.2252,3.7988],[46.3911,3.8914],[46.3968,4.2348],[46.151,4.4315],[46.1111,4.7415],[46.211,4.9414],[46.231,5.0814],[46.041,5.0314],[45.711,5.1114],[45.6555,5.1785],[45.4811,5.4329],[45.1877,5.1296],[44.9817,4.9173],[44.5921,4.9348],[44.6811,4.4115],[44.7511,4.0715],[44.801,3.8615],[44.7709,3.7015],[44.7809,3.2715]]]},"properties":{"adm1_name":"Hiraan","adm1_pcode":"SO20","adm0_name":"Somalia","center_lat":4.31525091,"center_lon":45.49857962}},{"type":"Feature","geometry":{"type":"MultiPolygon","coordinates":[[[[40.9957,1.2327],[40.9957,1.002],[40.9959,0.5623],[40.9957,0.1327],[40.9957,-0.199],[40.9957,-0.8332],[41.2807,-1.218],[41.5645,-1.6012],[41.5645,-1.6649],[41.5867,-1.6386],[41.6192,-1.585],[41.6315,-1.578],[41.6973,-1.4745],[41.7502,-1.3808],[41.7753,-1.3541],[41.8347,-1.2537],[41.8436,-1.2311],[41.8311,-1.1719],[41.7987,-1.1539],[41.7729,-1.1507],[41.7407,-1.1701],[41.7103,-1.1974],[41.6876,-1.2383],[41.7025,-1.1983],[41.7213,-1.1767],[41.7665,-1.1427],[41.7961,-1.1461],[41.8463,-1.1793],[41.8581,-1.2091],[41.8753,-1.2195],[41.9083,-1.1927],[41.9019,-1.1845],[41.88,-1.196],[41.9033,-1.1493],[41.9268,-1.1279],[41.9415,-1.0946],[41.9599,-1.0698],[41.9622,-1.0498],[41.9777,-1.0276],[41.9651,-1.0027],[41.9594,-0.9625],[41.9653,-0.9165],[41.9487,-0.8802],[41.9753,-0.9156],[41.9669,-0.95],[41.9793,-0.9803],[41.9791,-1.0074],[42.0251,-0.9694],[42.0372,-0.9318],[42.0716,-0.9004],[42.0893,-0.8533],[42.086,-0.8434],[42.0548,-0.85],[42.0406,-0.8279],[42.0382,-0.8026],[42.0077,-0.8117],[41.9822,-0.7943],[41.9886,-0.7328],[42.0023,-0.7378],[41.9923,-0.7809],[42.0047,-0.7976],[42.0489,-0.7922],[42.0685,-0.771],[42.0485,-0.8269],[42.0549,-0.8432],[42.0799,-0.8327],[42.1135,-0.8344],[42.1373,-0.8183],[42.148,-0.8229],[42.2138,-0.7558],[42.2373,-0.7186],[42.2536,-0.7152],[42.2551,-0.6986],[42.3138,-0.6311],[42.3243,-0.6089],[42.368,-0.5561],[42.3913,-0.5376],[42.4136,-0.5027],[42.4589,-0.4555],[42.4854,-0.4478],[42.4737,-0.4379],[42.5225,-0.3752],[42.5405,-0.3664],[42.5555,-0.3734],[42.5795,-0.312],[42.6155,-0.2663],[42.6607,-0.2288],[42.7854,-0.1066],[42.805,-0.0919],[42.8961,0],[42.9717,0.0857],[42.9932,0.1061],[43.1223,0.2527],[43.1913,0.3287],[42.7309,0.3118],[42.6318,0.7184],[42.5146,1.0708],[42.4309,1.3217],[42.2009,1.3117],[41.7713,1.2841],[41.4209,1.2617],[40.9957,1.2327]]],[[[41.9267,-1.1619],[41.9423,-1.1305],[41.9169,-1.156],[41.9267,-1.1619]]],[[[42.032,-1.0196],[42.0533,-0.9812],[42.0343,-0.9909],[42.0157,-1.0144],[42.032,-1.0196]]],[[[42.1861,-0.8313],[42.2197,-0.7944],[42.1795,-0.8291],[42.1443,-0.8731],[42.1861,-0.8313]]],[[[42.2685,-0.7395],[42.2984,-0.7103],[42.2731,-0.7265],[42.2685,-0.7395]]],[[[42.3361,-0.6484],[42.3486,-0.6282],[42.3219,-0.6391],[42.3219,-0.6593],[42.3361,-0.6484]]]]},"properties":{"adm1_name":"Lower Juba","adm1_pcode":"SO28","adm0_name":"Somalia","center_lat":-0.1723938,"center_lon":41.85649011}},{"type":"Feature","geometry":{"type":"Polygon","coordinates":[[[44.661,3.2515],[44.6911,3.0517],[44.641,2.8116],[44.661,2.7516],[44.6211,2.4817],[44.6509,2.2217],[44.336,2.0826],[44.0973,1.9772],[43.8809,1.8817],[43.5845,1.7631],[43.2434,1.5929],[42.9809,1.4617],[43.261,1.0465],[43.3397,0.9373],[43.5208,0.6756],[43.5883,0.7339],[43.6553,0.7989],[43.746,0.8659],[43.7819,0.9087],[43.8109,0.9269],[43.8465,0.9601],[43.9247,1.0131],[43.9371,1.0275],[44.0049,1.0803],[44.0219,1.0849],[44.0511,1.1269],[44.1097,1.1725],[44.1327,1.1777],[44.1357,1.2017],[44.1818,1.2497],[44.2061,1.2631],[44.2281,1.2935],[44.3185,1.3737],[44.4187,1.4493],[44.5905,1.5839],[44.5989,1.5973],[44.6331,1.6113],[44.6707,1.6447],[44.7271,1.6773],[44.7733,1.7131],[44.8917,1.7895],[45.0183,1.8615],[45.0317,1.8751],[45.0847,1.9073],[45.1521,1.9351],[45.1905,1.9573],[45.23,1.9684],[45.2296,2.0188],[45.2083,2.0712],[45.2459,2.0811],[45.2514,2.1033],[45.2641,2.0931],[45.2845,2.1047],[45.3437,2.0899],[45.391,2.1517],[45.3311,2.1817],[45.3371,2.5098],[45.341,2.7216],[45.1211,3.0417],[45.071,3.2515],[44.7809,3.2715],[44.661,3.2515]]]},"properties":{"adm1_name":"Lower Shabelle","adm1_pcode":"SO23","adm0_name":"Somalia","center_lat":1.97396483,"center_lon":44.65990887}},{"type":"Feature","geometry":{"type":"Polygon","coordinates":[[[42.4009,1.9517],[42.2319,1.9495],[41.7791,1.9435],[41.6409,1.9417],[41.5583,1.6865],[41.4209,1.2617],[41.7713,1.2841],[42.2009,1.3117],[42.4309,1.3217],[42.5146,1.0708],[42.6318,0.7184],[42.7309,0.3118],[43.1913,0.3287],[43.2935,0.4349],[43.3765,0.5333],[43.4339,0.5881],[43.4861,0.6439],[43.5208,0.6756],[43.3397,0.9373],[43.261,1.0465],[42.9809,1.4617],[42.8612,1.5593],[42.5209,1.8817],[42.4009,1.9517]]]},"properties":{"adm1_name":"Middle Juba","adm1_pcode":"SO27","adm0_name":"Somalia","center_lat":1.11705931,"center_lon":42.85628265}},{"type":"Feature","geometry":{"type":"Polygon","coordinates":[[[45.6069,2.1849],[45.6691,2.2185],[45.8469,2.3255],[45.9009,2.3521],[45.9793,2.4113],[46.0243,2.4417],[46.0441,2.4665],[46.1017,2.5137],[46.1205,2.5443],[46.1704,2.5951],[46.2283,2.6619],[46.2829,2.6997],[46.2975,2.7157],[46.3014,2.7388],[46.3306,2.7582],[46.3453,2.7867],[46.4054,2.8287],[46.4465,2.8742],[46.5757,2.9719],[46.7554,3.1532],[46.8384,3.2417],[46.8721,3.2933],[46.9114,3.3393],[47.0043,3.4399],[47.038,3.4723],[46.7304,3.6717],[46.3911,3.8914],[46.2252,3.7988],[46.0911,3.5715],[46.0611,3.5315],[46.0309,3.4997],[46.0125,3.4659],[45.941,3.2515],[45.5145,3.2198],[45.2709,3.2015],[45.1509,3.2115],[45.071,3.2515],[45.1211,3.0417],[45.341,2.7216],[45.3371,2.5098],[45.3311,2.1817],[45.391,2.1517],[45.461,2.1716],[45.6069,2.1849]]]},"properties":{"adm1_name":"Middle Shabelle","adm1_pcode":"SO21","adm0_name":"Somalia","center_lat":3.0287411,"center_lon":45.88149165}},{"type":"Feature","geometry":{"type":"Polygon","coordinates":[[[47.8348,4.3329],[47.8743,4.3773],[47.9394,4.4389],[47.9685,4.4757],[48.0111,4.5449],[48.0585,4.6295],[48.0863,4.6675],[48.1678,4.8202],[48.1974,4.8836],[48.2966,5.0302],[48.5368,5.3433],[48.6304,5.4652],[48.7261,5.6239],[48.8748,5.8564],[48.9871,6.0479],[49.0342,6.1486],[49.0618,6.213],[49.0837,6.2825],[49.0792,6.3227],[49.0852,6.3913],[49.1133,6.4873],[49.1442,6.5511],[49.1464,6.5663],[49.1735,6.6213],[49.2071,6.7035],[49.2111,6.7337],[49.2857,6.8555],[49.3123,6.9079],[49.3612,6.9802],[49.3974,7.0495],[49.4263,7.0815],[49.4753,7.1599],[49.6039,7.3301],[49.6507,7.3993],[49.5011,7.5711],[49.4411,7.5811],[49.191,7.7011],[49.0311,7.7111],[48.8627,7.6158],[48.501,7.4112],[48.1009,7.4754],[47.5602,7.563],[47.5424,7.5482],[47.3593,7.3614],[47.147,7.1445],[46.895,6.8867],[46.5383,6.521],[46.5415,6.5177],[46.9975,6.4161],[47.2959,6.3495],[47.601,6.2813],[47.5188,6.1069],[47.3517,5.7529],[47.471,5.5713],[47.608,5.1995],[47.6033,5.1419],[47.5017,4.4953],[47.6055,4.4419],[47.8348,4.3329]]]},"properties":{"adm1_name":"Mudug","adm1_pcode":"SO18","adm0_name":"Somalia","center_lat":6.02700509,"center_lon":48.22829216}},{"type":"Feature","geometry":{"type":"Polygon","coordinates":[[[49.0811,9.1405],[48.731,8.781],[48.561,8.781],[48.3365,8.5437],[48.051,8.2411],[48.131,8.2111],[47.9206,8.0007],[47.9863,8.0001],[47.5602,7.563],[48.1009,7.4754],[48.501,7.4112],[48.8627,7.6158],[49.0311,7.7111],[49.191,7.7011],[49.4411,7.5811],[49.5011,7.5711],[49.6507,7.3993],[49.6789,7.4411],[49.7421,7.5599],[49.7667,7.6171],[49.7803,7.6701],[49.8238,7.7254],[49.8363,7.7651],[49.8364,7.7897],[49.8217,7.7899],[49.8096,7.8183],[49.8162,7.8816],[49.8273,7.9219],[49.8921,8.0001],[49.9844,8.0958],[50.0621,8.1365],[50.1292,8.1985],[50.1462,8.2565],[50.1471,8.2836],[50.1622,8.3198],[50.1761,8.3291],[50.0511,8.4411],[49.9311,8.4611],[49.8411,8.3311],[49.7811,8.5311],[49.6811,8.5811],[49.4511,8.5911],[49.3001,8.6854],[49.1811,8.771],[49.1111,8.901],[49.0811,9.1405]]]},"properties":{"adm1_name":"Nugaal","adm1_pcode":"SO17","adm0_name":"Somalia","center_lat":8.26973832,"center_lon":49.11180429}},{"type":"Feature","geometry":{"type":"Polygon","coordinates":[[[48.9191,11.2387],[48.8796,11.2465],[48.7737,11.2907],[48.7019,11.3075],[48.6621,11.3225],[48.6041,11.307],[48.5433,11.3105],[48.5174,11.3058],[48.4621,11.2803],[48.4041,11.2808],[48.3601,11.2698],[48.3173,11.2301],[48.2881,11.2134],[48.2417,11.2045],[48.208,11.1786],[48.1853,11.1525],[48.1535,11.1291],[48.1077,11.1239],[48.0927,11.1287],[48.0246,11.115],[47.9718,11.1124],[47.9135,11.1218],[47.8642,11.1102],[47.8022,11.122],[47.7205,11.0947],[47.6744,11.0902],[47.5769,11.1505],[47.5574,11.1694],[47.5063,11.181],[47.4221,11.1754],[47.3341,11.1451],[47.2761,11.1184],[47.2563,11.1144],[47.2181,11.0863],[47.1505,11.0625],[47.1423,11.0411],[47.1127,11.0141],[47.1075,10.9925],[47.0831,10.9757],[47.0503,10.9635],[47.0173,10.9607],[46.9848,10.9266],[46.9558,10.9128],[46.9377,10.914],[46.9213,10.8955],[46.9009,10.8921],[46.8705,10.8585],[46.8457,10.8502],[46.8345,10.8354],[46.7711,10.7979],[46.7169,10.7768],[46.6668,10.745],[46.6102,10.7272],[46.5884,10.7275],[46.5188,10.7104],[46.4497,10.6807],[46.3981,10.6815],[46.3447,10.6897],[46.3205,10.7106],[46.292,10.747],[46.2362,10.7804],[46.2061,10.7807],[46.0969,10.7624],[46.0315,10.773],[46.0173,10.296],[46.0111,10.0809],[46.0495,10.0503],[46.2279,9.9087],[46.4651,9.7201],[46.675,9.553],[46.8411,9.4211],[46.9111,9.431],[47.3957,9.4607],[48.0795,9.5025],[48.3596,9.5249],[48.5797,9.5421],[49.0611,9.5711],[49.0553,9.7958],[49.0464,10.1437],[49.0364,10.5497],[49.0311,10.7809],[48.9191,11.2387]]]},"properties":{"adm1_name":"Sanaag","adm1_pcode":"SO15","adm0_name":"Somalia","center_lat":10.37752336,"center_lon":47.53007452}},{"type":"Feature","geometry":{"type":"Polygon","coordinates":[[[49.0611,9.5711],[48.5797,9.5421],[48.3596,9.5249],[48.0795,9.5025],[47.3957,9.4607],[46.9111,9.431],[46.8411,9.4211],[46.675,9.553],[46.4651,9.7201],[46.2279,9.9087],[46.0495,10.0503],[46.0909,9.8006],[46.166,9.3475],[46.221,9.001],[46.1911,8.821],[46.6186,8.7986],[46.9211,8.7826],[46.9211,8.7611],[47.0011,8.7511],[47.1011,8.5611],[47.0784,8.417],[47.0126,8.0001],[47.3067,8.0002],[47.5778,8.0001],[47.9206,8.0007],[48.131,8.2111],[48.051,8.2411],[48.3365,8.5437],[48.561,8.781],[48.731,8.781],[49.0811,9.1405],[49.0611,9.5711]]]},"properties":{"adm1_name":"Sool","adm1_pcode":"SO14","adm0_name":"Somalia","center_lat":9.04309148,"center_lon":47.6002604}},{"type":"Feature","geometry":{"type":"Polygon","coordinates":[[[46.0111,10.0809],[45.9011,10.1011],[45.655,10.1226],[45.3546,10.149],[45.1011,10.1709],[44.871,9.9109],[44.831,9.861],[44.7697,9.6206],[44.6911,9.3111],[44.691,8.9965],[44.691,8.772],[44.8689,8.71],[45.239,8.5867],[45.2577,8.5823],[45.4817,8.5081],[45.6117,8.4679],[45.7657,8.4153],[45.8304,8.3949],[46.1139,8.2999],[46.3299,8.2297],[46.6012,8.1366],[47.0126,8.0001],[47.0784,8.417],[47.1011,8.5611],[47.0011,8.7511],[46.9211,8.7611],[46.9211,8.7826],[46.6186,8.7986],[46.1911,8.821],[46.221,9.001],[46.166,9.3475],[46.0909,9.8006],[46.0495,10.0503],[46.0111,10.0809]]]},"properties":{"adm1_name":"Togdheer","adm1_pcode":"SO13","adm0_name":"Somalia","center_lat":9.14936357,"center_lon":45.44420059}},{"type":"Feature","geometry":{"type":"Polygon","coordinates":[[[43.2897,9.6573],[43.2993,9.6111],[43.3407,9.6003],[43.3983,9.5529],[43.4455,9.4449],[43.4915,9.4015],[43.5349,9.3811],[43.6017,9.3591],[43.6467,9.3583],[43.8719,9.1301],[43.8973,9.1005],[43.9857,9.0135],[44.0059,8.9967],[44.1221,8.9577],[44.3241,8.8929],[44.691,8.772],[44.691,8.9965],[44.6911,9.3111],[44.7697,9.6206],[44.831,9.861],[44.871,9.9109],[45.1011,10.1709],[45.3546,10.149],[45.655,10.1226],[45.9011,10.1011],[46.0111,10.0809],[46.0173,10.296],[46.0315,10.773],[45.9747,10.7811],[45.912,10.8215],[45.8655,10.8356],[45.8838,10.811],[45.8658,10.8172],[45.8545,10.8394],[45.8102,10.8673],[45.7803,10.8607],[45.7557,10.8303],[45.7155,10.8171],[45.6815,10.7925],[45.6181,10.7654],[45.5972,10.7649],[45.572,10.7262],[45.533,10.7084],[45.5143,10.6913],[45.4801,10.6838],[45.4607,10.6639],[45.3246,10.6601],[45.2333,10.562],[45.1294,10.5156],[45.0881,10.5085],[45.0479,10.475],[44.9856,10.4508],[45.0055,10.4457],[44.9957,10.4335],[44.9435,10.4108],[44.8806,10.4063],[44.8275,10.4176],[44.7259,10.4175],[44.6587,10.4015],[44.6157,10.3821],[44.5646,10.3796],[44.4816,10.399],[44.4477,10.4009],[44.4104,10.3918],[44.3666,10.4013],[44.2882,10.4314],[44.2367,10.4731],[44.1509,10.3209],[44.041,10.171],[43.8209,10.2909],[43.7609,10.3009],[43.7209,10.2609],[43.5309,9.9909],[43.3709,9.801],[43.3109,9.6911],[43.2897,9.6573]]]},"properties":{"adm1_name":"Woqooyi Galbeed","adm1_pcode":"SO12","adm0_name":"Somalia","center_lat":9.82498164,"center_lon":44.106478}}]}